[{"OBJECT_NAME":"NANOSAT-1","OBJECT_ID":"2004-049B","EPOCH":"2026-03-09T22:09:44.581824","MEAN_MOTION":14.79922101,"ECCENTRICITY":0.00029678,"INCLINATION":98.2096,"RA_OF_ASC_NODE":203.2649,"ARG_OF_PERICENTER":243.7853,"MEAN_ANOMALY":116.3053,"EPHEMERIS_TYPE":0,"CLASSIFICATION_TYPE":"U","NORAD_CAT_ID":28493,"ELEMENT_SET_NO":999,"REV_AT_EPOCH":14076,"BSTAR":0.00025095221,"MEAN_MOTION_DOT":1.84e-5,"MEAN_MOTION_DDOT":0},{"OBJECT_NAME":"CZ-6A DEB","OBJECT_ID":"2022-151YY","EPOCH":"2026-03-08T15:55:08.570496","MEAN_MOTION":14.70419161,"ECCENTRICITY":0.00799942,"INCLINATION":98.627,"RA_OF_ASC_NODE":129.135,"ARG_OF_PERICENTER":233.4282,"MEAN_ANOMALY":125.9542,"EPHEMERIS_TYPE":0,"CLASSIFICATION_TYPE":"U","NORAD_CAT_ID":55550,"ELEMENT_SET_NO":999,"REV_AT_EPOCH":16933,"BSTAR":0.0032367463,"MEAN_MOTION_DOT":0.00020586,"MEAN_MOTION_DDOT":0}]
